STARLINK-2478           
1 48135U 21027AV  26068.66591199 -.00109876  00000+0 -38835-2 0  9992
2 48135  53.1606 168.0254 0003205 139.4630 220.6609 15.29082675272478
FLOCK 4G-2              
1 62661U 25009BE  26068.66207492  .00013752  00000+0  51068-3 0  9995
2 62661  97.4044 151.2221 0003181 329.2677  30.8376 15.27675260121321
